start=new Date('2021-10-09T00:00:00.000Z').valueOf();
sats=[{"TLE_LINE1":"1 48036U 21024BM  21281.55683563  .00000714  00000-0  66840-4 0  9995","RCS_SIZE":"LARGE","PERIAPSIS":"546.537","TLE_LINE2":"2 48036  53.0559  13.2581 0000973 113.8014 246.3077 15.06400920 31490","SITE":"AFETR","SEMIMAJOR_AXIS":"6925.346","FILE":"3151292","MEAN_ELEMENT_THEORY":"SGP4","DECAY_DATE":null,"EPOCH":"2021-10-08T13:21:50.598432","GP_ID":"186557685","INCLINATION":"53.0559","LAUNCH_DATE":"2021-03-24","REV_AT_EPOCH":"3149","MEAN_MOTION_DDOT":"0.0000000000000","RA_OF_ASC_NODE":"13.2581","MEAN_MOTION":"15.06400920","COUNTRY_CODE":"US","OBJECT_TYPE":"PAYLOAD","CLASSIFICATION_TYPE":"U","OBJECT_ID":"2021-024BM","ECCENTRICITY":"0.00009730","BSTAR":"0.00006684000000","REF_FRAME":"TEME","NORAD_CAT_ID":"48036","APOAPSIS":"547.885","OBJECT_NAME":"STARLINK-2295","ARG_OF_PERICENTER":"113.8014","PERIOD":"95.592","MEAN_MOTION_DOT":"0.00000714","CENTER_NAME":"EARTH","EPHEMERIS_TYPE":"0","TIME_SYSTEM":"UTC","ELEMENT_SET_NO":"999","MEAN_ANOMALY":"246.3077"},{"LAUNCH_DATE":"2021-04-07","REV_AT_EPOCH":"3026","MEAN_MOTION_DDOT":"0.0000000000000","DECAY_DATE":null,"EPOCH":"2021-10-08T21:41:45.663936","GP_ID":"186596281","INCLINATION":"53.0431","OBJECT_TYPE":"PAYLOAD","RA_OF_ASC_NODE":"145.1035","MEAN_MOTION":"15.73175477","COUNTRY_CODE":"US","TLE_LINE1":"1 48092U 21027A   21281.90400074  .00016185  00000-0  11961-3 0  9995","RCS_SIZE":"LARGE","PERIAPSIS":"347.395","SITE":"AFETR","TLE_LINE2":"2 48092  53.0431 145.1035 0003619   8.1553 351.9523 15.73175477 30267","MEAN_ELEMENT_THEORY":"SGP4","FILE":"3152020","SEMIMAJOR_AXIS":"6727.965","CENTER_NAME":"EARTH","EPHEMERIS_TYPE":"0","MEAN_ANOMALY":"351.9523","TIME_SYSTEM":"UTC","ELEMENT_SET_NO":"999","OBJECT_ID":"2021-027A","ECCENTRICITY":"0.00036190","BSTAR":"0.00011961000000","CLASSIFICATION_TYPE":"U","PERIOD":"91.535","ARG_OF_PERICENTER":"8.1553","MEAN_MOTION_DOT":"0.00016185","NORAD_CAT_ID":"48092","REF_FRAME":"TEME","APOAPSIS":"352.265","OBJECT_NAME":"STARLINK-2048"},{"DECAY_DATE":null,"EPOCH":"2021-10-08T12:07:29.970336","GP_ID":"186556946","INCLINATION":"53.0558","LAUNCH_DATE":"2021-04-07","REV_AT_EPOCH":"2941","MEAN_MOTION_DDOT":"0.0000000000000","RA_OF_ASC_NODE":"203.4784","MEAN_MOTION":"15.06406676","COUNTRY_CODE":"US","OBJECT_TYPE":"PAYLOAD","TLE_LINE1":"1 48093U 21027B   21281.50520799  .00000586  00000-0  58209-4 0  9994","PERIAPSIS":"545.943","RCS_SIZE":"LARGE","SITE":"AFETR","TLE_LINE2":"2 48093  53.0558 203.4784 0001805  60.6692 299.4477 15.06406676 29412","SEMIMAJOR_AXIS":"6925.328","FILE":"3151292","MEAN_ELEMENT_THEORY":"SGP4","CENTER_NAME":"EARTH","EPHEMERIS_TYPE":"0","TIME_SYSTEM":"UTC","ELEMENT_SET_NO":"999","MEAN_ANOMALY":"299.4477","CLASSIFICATION_TYPE":"U","OBJECT_ID":"2021-027B","ECCENTRICITY":"0.00018050","BSTAR":"0.00005820900000","REF_FRAME":"TEME","NORAD_CAT_ID":"48093","APOAPSIS":"548.443","OBJECT_NAME":"STARLINK-2404","PERIOD":"95.592","ARG_OF_PERICENTER":"60.6692","MEAN_MOTION_DOT":"0.00000586"},{"OBJECT_ID":"2021-027C","BSTAR":"0.00015993000000","ECCENTRICITY":"0.00017450","CLASSIFICATION_TYPE":"U","PERIOD":"95.592","ARG_OF_PERICENTER":"68.7956","MEAN_MOTION_DOT":"0.00002101","NORAD_CAT_ID":"48094","REF_FRAME":"TEME","OBJECT_NAME":"STARLINK-2412","APOAPSIS":"548.420","EPHEMERIS_TYPE":"0","CENTER_NAME":"EARTH","MEAN_ANOMALY":"291.3219","ELEMENT_SET_NO":"999","TIME_SYSTEM":"UTC","RCS_SIZE":"LARGE","PERIAPSIS":"546.003","TLE_LINE1":"1 48094U 21027C   21281.54209332  .00002101  00000-0  15993-3 0  9993","TLE_LINE2":"2 48094  53.0559 213.3147 0001745  68.7956 291.3219 15.06400739 29286","SITE":"AFETR","MEAN_ELEMENT_THEORY":"SGP4","FILE":"3152020","SEMIMAJOR_AXIS":"6925.346","LAUNCH_DATE":"2021-04-07","MEAN_MOTION_DDOT":"0.0000000000000","REV_AT_EPOCH":"2928","EPOCH":"2021-10-08T13:00:36.862848","DECAY_DATE":null,"INCLINATION":"53.0559","GP_ID":"186595280","OBJECT_TYPE":"PAYLOAD","RA_OF_ASC_NODE":"213.3147","MEAN_MOTION":"15.06400739","COUNTRY_CODE":"US"},{"MEAN_ANOMALY":"289.1126","ELEMENT_SET_NO":"999","TIME_SYSTEM":"UTC","EPHEMERIS_TYPE":"0","CENTER_NAME":"EARTH","ARG_OF_PERICENTER":"71.0044","PERIOD":"95.592","MEAN_MOTION_DOT":"-0.00000824","REF_FRAME":"TEME","NORAD_CAT_ID":"48095","OBJECT_NAME":"STARLINK-2414","APOAPSIS":"548.377","OBJECT_ID":"2021-027D","BSTAR":"-0.00003643800000","ECCENTRICITY":"0.00016770","CLASSIFICATION_TYPE":"U","OBJECT_TYPE":"PAYLOAD","RA_OF_ASC_NODE":"213.2876","MEAN_MOTION":"15.06399440","COUNTRY_CODE":"US","LAUNCH_DATE":"2021-04-07","MEAN_MOTION_DDOT":"0.0000000000000","REV_AT_EPOCH":"2929","EPOCH":"2021-10-08T13:11:13.489152","DECAY_DATE":null,"INCLINATION":"53.0568","GP_ID":"186595530","MEAN_ELEMENT_THEORY":"SGP4","FILE":"3152020","SEMIMAJOR_AXIS":"6925.350","RCS_SIZE":"LARGE","PERIAPSIS":"546.054","TLE_LINE1":"1 48095U 21027D   21281.54946168 -.00000824  00000-0 -36438-4 0  9999","SITE":"AFETR","TLE_LINE2":"2 48095  53.0568 213.2876 0001677  71.0044 289.1126 15.06399440 29293"},{"REV_AT_EPOCH":"2927","MEAN_MOTION_DDOT":"0.0000000000000","LAUNCH_DATE":"2021-04-07","GP_ID":"186556195","INCLINATION":"53.0575","DECAY_DATE":null,"EPOCH":"2021-10-08T12:34:04.725984","OBJECT_TYPE":"PAYLOAD","COUNTRY_CODE":"US","RA_OF_ASC_NODE":"213.4054","MEAN_MOTION":"15.06398737","SITE":"AFETR","TLE_LINE2":"2 48096  53.0575 213.4054 0001656  79.8487 280.2689 15.06398737 29278","TLE_LINE1":"1 48096U 21027E   21281.52366581  .00000327  00000-0  40823-4 0  9992","RCS_SIZE":"LARGE","PERIAPSIS":"546.071","MEAN_ELEMENT_THEORY":"SGP4","FILE":"3151292","SEMIMAJOR_AXIS":"6925.352","CENTER_NAME":"EARTH","EPHEMERIS_TYPE":"0","MEAN_ANOMALY":"280.2689","TIME_SYSTEM":"UTC","ELEMENT_SET_NO":"999","ECCENTRICITY":"0.00016560","BSTAR":"0.00004082300000","OBJECT_ID":"2021-027E","CLASSIFICATION_TYPE":"U","MEAN_MOTION_DOT":"0.00000327","PERIOD":"95.592","ARG_OF_PERICENTER":"79.8487","APOAPSIS":"548.364","OBJECT_NAME":"STARLINK-2417","REF_FRAME":"TEME","NORAD_CAT_ID":"48096"},{"PERIAPSIS":"545.823","RCS_SIZE":"LARGE","TLE_LINE1":"1 48097U 21027F   21281.17165261  .00000473  00000-0  50625-4 0  9999","TLE_LINE2":"2 48097  53.0553 194.9750 0001989  54.4693 305.6482 15.06404303 29504","SITE":"AFETR","SEMIMAJOR_AXIS":"6925.335","MEAN_ELEMENT_THEORY":"SGP4","FILE":"3151292","EPOCH":"2021-10-08T04:07:10.785504","DECAY_DATE":null,"INCLINATION":"53.0553","GP_ID":"186557446","LAUNCH_DATE":"2021-04-07","MEAN_MOTION_DDOT":"0.0000000000000","REV_AT_EPOCH":"2950","RA_OF_ASC_NODE":"194.9750","MEAN_MOTION":"15.06404303","COUNTRY_CODE":"US","OBJECT_TYPE":"PAYLOAD","CLASSIFICATION_TYPE":"U","OBJECT_ID":"2021-027F","BSTAR":"0.00005062500000","ECCENTRICITY":"0.00019890","REF_FRAME":"TEME","NORAD_CAT_ID":"48097","OBJECT_NAME":"STARLINK-2418","APOAPSIS":"548.578","ARG_OF_PERICENTER":"54.4693","PERIOD":"95.592","MEAN_MOTION_DOT":"0.00000473","EPHEMERIS_TYPE":"0","CENTER_NAME":"EARTH","ELEMENT_SET_NO":"999","TIME_SYSTEM":"UTC","MEAN_ANOMALY":"305.6482"},{"MEAN_MOTION_DOT":"0.00000478","ARG_OF_PERICENTER":"64.8030","PERIOD":"95.592","OBJECT_NAME":"STARLINK-2421","APOAPSIS":"548.476","NORAD_CAT_ID":"48098","REF_FRAME":"TEME","BSTAR":"0.00005096200000","ECCENTRICITY":"0.00018450","OBJECT_ID":"2021-027G","CLASSIFICATION_TYPE":"U","MEAN_ANOMALY":"295.3150","ELEMENT_SET_NO":"999","TIME_SYSTEM":"UTC","EPHEMERIS_TYPE":"0","CENTER_NAME":"EARTH","MEAN_ELEMENT_THEORY":"SGP4","FILE":"3151292","SEMIMAJOR_AXIS":"6925.333","TLE_LINE2":"2 48098  53.0561 203.5931 0001845  64.8030 295.3150 15.06404993 29404","SITE":"AFETR","RCS_SIZE":"LARGE","PERIAPSIS":"545.921","TLE_LINE1":"1 48098U 21027G   21281.48035100  .00000478  00000-0  50962-4 0  9991","OBJECT_TYPE":"PAYLOAD","COUNTRY_CODE":"US","MEAN_MOTION":"15.06404993","RA_OF_ASC_NODE":"203.5931","MEAN_MOTION_DDOT":"0.0000000000000","REV_AT_EPOCH":"2940","LAUNCH_DATE":"2021-04-07","INCLINATION":"53.0561","GP_ID":"186557692","EPOCH":"2021-10-08T11:31:42.326400","DECAY_DATE":null},{"CLASSIFICATION_TYPE":"U","OBJECT_ID":"2021-027H","BSTAR":"-0.00001459500000","ECCENTRICITY":"0.00017410","NORAD_CAT_ID":"48099","REF_FRAME":"TEME","OBJECT_NAME":"STARLINK-2428","APOAPSIS":"548.444","ARG_OF_PERICENTER":"68.2643","PERIOD":"95.593","MEAN_MOTION_DOT":"-0.00000499","EPHEMERIS_TYPE":"0","CENTER_NAME":"EARTH","ELEMENT_SET_NO":"999","TIME_SYSTEM":"UTC","MEAN_ANOMALY":"291.8532","PERIAPSIS":"546.033","RCS_SIZE":"LARGE","TLE_LINE1":"1 48099U 21027H   21281.20300412 -.00000499  00000-0 -14595-4 0  9990","TLE_LINE2":"2 48099  53.0556 214.8296 0001741  68.2643 291.8532 15.06391803 29221","SITE":"AFETR","SEMIMAJOR_AXIS":"6925.374","FILE":"3151292","MEAN_ELEMENT_THEORY":"SGP4","EPOCH":"2021-10-08T04:52:19.555968","DECAY_DATE":null,"INCLINATION":"53.0556","GP_ID":"186556445","LAUNCH_DATE":"2021-04-07","MEAN_MOTION_DDOT":"0.0000000000000","REV_AT_EPOCH":"2922","RA_OF_ASC_NODE":"214.8296","MEAN_MOTION":"15.06391803","COUNTRY_CODE":"US","OBJECT_TYPE":"PAYLOAD"},{"LAUNCH_DATE":"2021-04-07","MEAN_MOTION_DDOT":"0.0000000000000","REV_AT_EPOCH":"2961","EPOCH":"2021-10-08T21:27:30.524256","DECAY_DATE":null,"INCLINATION":"53.0564","GP_ID":"186596282","OBJECT_TYPE":"PAYLOAD","RA_OF_ASC_NODE":"191.7392","MEAN_MOTION":"15.06398089","COUNTRY_CODE":"US","PERIAPSIS":"546.033","RCS_SIZE":"LARGE","TLE_LINE1":"1 48100U 21027J   21281.89410329 -.00000123  00000-0  10665-4 0  9994","TLE_LINE2":"2 48100  53.0564 191.7392 0001713  63.3374 296.7790 15.06398089 29615","SITE":"AFETR","FILE":"3152020","MEAN_ELEMENT_THEORY":"SGP4","SEMIMAJOR_AXIS":"6925.354","EPHEMERIS_TYPE":"0","CENTER_NAME":"EARTH","MEAN_ANOMALY":"296.7790","ELEMENT_SET_NO":"999","TIME_SYSTEM":"UTC","OBJECT_ID":"2021-027J","BSTAR":"0.00001066500000","ECCENTRICITY":"0.00017130","CLASSIFICATION_TYPE":"U","ARG_OF_PERICENTER":"63.3374","PERIOD":"95.592","MEAN_MOTION_DOT":"-0.00000123","NORAD_CAT_ID":"48100","REF_FRAME":"TEME","OBJECT_NAME":"STARLINK-2430","APOAPSIS":"548.406"}];
